[{"OBJECT_NAME":"STARLINK-6049","OBJECT_ID":"2023-078AF","EPOCH":"2026-03-09T22:18:23.025888","MEAN_MOTION":14.98326107,"ECCENTRICITY":0.00025054,"INCLINATION":70.0006,"RA_OF_ASC_NODE":343.9548,"ARG_OF_PERICENTER":263.0941,"MEAN_ANOMALY":96.9933,"EPHEMERIS_TYPE":0,"CLASSIFICATION_TYPE":"U","NORAD_CAT_ID":56796,"ELEMENT_SET_NO":999,"REV_AT_EPOCH":15271,"BSTAR":2.6098056e-5,"MEAN_MOTION_DOT":2.18e-6,"MEAN_MOTION_DDOT":0},{"OBJECT_NAME":"HAWK-8A","OBJECT_ID":"2024-066B","EPOCH":"2026-03-09T09:46:26.156352","MEAN_MOTION":14.98766556,"ECCENTRICITY":0.00042143,"INCLINATION":45.5937,"RA_OF_ASC_NODE":72.3645,"ARG_OF_PERICENTER":254.4969,"MEAN_ANOMALY":105.5447,"EPHEMERIS_TYPE":0,"CLASSIFICATION_TYPE":"U","NORAD_CAT_ID":59443,"ELEMENT_SET_NO":999,"REV_AT_EPOCH":10486,"BSTAR":0.0002089936,"MEAN_MOTION_DOT":2.325e-5,"MEAN_MOTION_DDOT":0}]
